[Satellite]
VERSION=1.1
NAME=GSAT0104 (PRN E20)
NICKNAME=GSAT0104 (PRN E20)
TLE1=1 38858U 12055B   22340.13029694  .00000050  00000+0  00000+0 0  9993
TLE2=2 38858  55.1912 136.9792 0001675 150.4374 209.5505  1.70473888 63031
STATUS=0
